A/2021 E2,e,167.4889,190.8097,342.3356,217.4895,0.0003073,0.98950157,0.0000,12/10.1823/2020,2000,g 15.0,2.0
# From MPEC 2023-J29
C/2021 E3 (ZTF),h,06/11.8495/2022,112.5383,104.4814,228.8405,1.000682,1.777172,2000,8.5,4.0
# From MPEC 2023-SQ0
A/2021 E4,e,116.3620,171.1663,48.2631,551.0016,0.0000762,0.99151276,0.0000,04/25.0849/2022,2000,g 13.5,22.0
# From MPEC 2022-QD9
C/2021 F1 (Lemmon-PANSTARRS),e,7.3193,203.4600,146.8612,240.0227,0.0002650,0.99584731,0.0000,04/06.8018/2022,2000,g 13.5,4.0
# From MPEC 2021-J72
C/2021 G1 (Leonard),e,131.5467,270.6981,107.4452,73.14079,0.0015757,0.95318590,1.3666,12/06.0/2023,2000,g 14.0,4.0
# From MPEC 2023-W26
C/2021 G2 (ATLAS),e,48.4749,221.0936,343.3006,17953,0.0000004,0.99972249,0.0000,09/09.3943/2024,2000,g  5.5,4.0
# From MPEC 2022-X67
C/2021 G3 (PANSTARRS),e,102.8706,147.3932,10.5848,21606,0.0000003,0.99976025,0.0000,10/17.9899/2021,2000,g 10.5,4.0
# From MPEC 2021-Y10
P/2021 HS (PANSTARRS),e,12.1581,262.3702,46.1365,4.194581,0.1147285,0.80965185,97.7466,12/06.0/2023,2000,g 22.0,4.0
# From MPEC 2022-C56
C/2021 J1 (Maury-Attard),e,92.7169,88.3938,147.3001,26.33939,0.0072911,0.93395368,7.4342,12/06.0/2023,2000,g 15.5,4.0
# From MPEC 2023-X98
C/2021 J2 (PANSTARRS),e,156.2131,23.3344,171.9820,116.2329,0.0007865,0.95953450,0.6332,12/06.0/2023,2000,g 12.0,4.0
# From MPEC 2023-VM5
P/2021 J3 (ATLAS),e,14.5274,111.1244,125.9174,8.920059,0.0369958,0.44900331,59.8296,12/06.0/2023,2000,g  7.0,4.0
# From MPEC 2022-O08
C/2021 K1 (ATLAS),e,16.2743,140.9121,184.2759,12.65600,0.0218907,0.80247568,20.7099,12/06.0/2023,2000,g 11.0,4.0
# From MPEC 2022-O01
C/2021 K2 (MASTER),h,09/09.7287/2021,0.8404,282.1110,343.5324,1.000938,5.469008,2000,8.0,4.0
# From MPEC 2022-L66
C/2021 K3 (Catalina),h,02/03.7746/2022,34.7656,114.5534,182.0520,1.003143,5.233340,2000,10.0,4.0
# From MPEC 2021-W31
P/2021 L2 (Leonard),e,21.0658,266.6552,51.5070,4.048783,0.1209811,0.52091438,104.6476,12/06.0/2023,2000,g 17.0,4.0
# From MPEC 2023-M14
C/2021 L3 (Borisov),h,02/14.4471/2022,78.5706,344.9883,91.6236,1.004168,8.458324,2000,10.1,4.0
# From MPEC 2022-TA0
P/2021 N1 (ZTF),e,11.4923,301.1555,21.2369,2.978457,0.1917419,0.67613094,175.0174,12/06.0/2023,2000,g 19.0,4.0
# From MPEC 2023-W26
P/2021 N2 (Fuls),e,13.0612,221.7315,177.5112,6.941319,0.0538941,0.45261856,40.5199,12/06.0/2023,2000,g  9.5,4.0
# From MPEC 2022-YB4
C/2021 N3 (PANSTARRS),e,26.7447,337.4971,304.7409,148.0990,0.0005469,0.96139494,0.6585,12/06.0/2023,2000,g  8.5,4.0
# From MPEC 2022-A21
C/2021 O1 (Nishimura),e,27.5968,41.5975,74.3977,2540,0.0000077,0.99969120,0.0000,08/14.1567/2021,2000,g 10.5,4.0
# From MPEC 2022-L66
C/2021 O3 (PANSTARRS),h,04/21.0790/2022,56.7962,188.9911,299.9556,1.000047,0.286469,2000,10.5,4.0
# From MPEC 2022-CN4
C/2021 P1 (PANSTARRS),e,51.6390,359.6997,40.4667,2321,0.0000088,0.99811450,0.0000,06/02.4986/2022,2000,g 11.0,4.0
# From MPEC 2023-R20
C/2021 P2 (PANSTARRS),e,150.0634,32.0806,76.7118,3681,0.0000044,0.99862297,0.0000,01/22.9045/2023,2000,g  9.0,4.0
# From MPEC 2021-W31
P/2021 P3 (PANSTARRS),e,27.1614,358.2420,334.0942,4.412445,0.1063372,0.33884276,97.8420,12/06.0/2023,2000,g 14.0,4.0
# From MPEC 2023-A50
C/2021 P4 (ATLAS),e,56.3171,348.0793,175.7983,300.6798,0.0001890,0.99640854,0.0000,07/30.3392/2022,2000,g  9.5,4.0
# From MPEC 2023-E68
P/2021 PE20 (ATLAS),e,20.0038,99.6286,210.4719,3.745922,0.1359459,0.67010487,124.0214,12/06.0/2023,2000,g 17.0,4.0
# From MPEC 2023-FK0
C/2021 Q3 (ATLAS),e,77.7479,307.9151,114.1103,75.70381,0.0014963,0.93124202,1.0156,12/06.0/2023,2000,g  8.0,4.0
# From MPEC 2023-X98
C/2021 Q4 (Fuls),h,06/11.1342/2023,71.4789,183.3301,147.0460,1.003027,7.564915,2000,6.0,4.0
# From MPEC 2022-C56
P/2021 Q5 (ATLAS),e,10.7387,239.7579,180.9242,3.286790,0.1654040,0.62464457,136.8272,12/06.0/2023,2000,g 15.0,4.0
# From MPEC 2023-X98
C/2021 Q6 (PANSTARRS),h,03/24.7749/2024,161.8473,133.5348,141.0056,1.000471,8.707904,2000,6.0,4.0
# From MPEC 2023-FK0
C/2021 QM45 (PANSTARRS),e,22.8191,354.5942,72.8409,380.4351,0.0001328,0.99270805,0.0000,08/13.5858/2022,2000,g 11.0,4.0
# From MPEC 2022-X67
P/2021 R1 (PANSTARRS),e,5.5199,143.2850,220.2937,8.314192,0.0411125,0.41233964,29.6320,12/06.0/2023,2000,g 11.0,4.0
# From MPEC 2022-X67
C/2021 R2 (PANSTARRS),e,134.4828,16.3014,32.4808,3288,0.0000052,0.99777540,0.0000,12/27.4299/2021,2000,g  7.5,4.0
# From MPEC 2021-W31
P/2021 R3 (PANSTARRS),e,19.9306,304.1970,2.7343,3.771592,0.1345603,0.33100559,124.3831,12/06.0/2023,2000,g 16.0,4.0
# From MPEC 2021-W31
P/2021 R4 (Wierzchos),e,21.0303,321.2971,56.6917,5.624151,0.0738956,0.58592768,57.8554,12/06.0/2023,2000,g 16.0,4.0
# From MPEC 2022-Y15
P/2021 R5 (Rankin),e,7.8545,219.9541,167.5039,4.795064,0.0938669,0.30659525,64.9877,12/06.0/2023,2000,g 12.0,4.0
# From MPEC 2021-W31
P/2021 R6 (Groeller),e,34.9208,176.1567,220.7938,6.283284,0.0625783,0.59343121,47.8612,12/06.0/2023,2000,g 14.5,4.0
# From MPEC 2022-X67
C/2021 R7 (PANSTARRS),e,158.8599,170.1613,140.2928,859.1185,0.0000391,0.99342240,0.0000,04/16.5226/2021,2000,g 10.5,4.0
# From MPEC 2021-Y10
P/2021 R8 (Sheppard),e,2.2033,167.0744,190.8229,3.018603,0.1879295,0.29321986,148.3786,12/06.0/2023,2000,g 18.5,4.0
# From MPEC 2023-J29
C/2021 S1 (ATLAS),h,03/01.3461/2022,52.0602,299.8742,148.2175,1.002398,6.120054,2000,7.0,4.0
# From MPEC 2023-X98
C/2021 S3 (PANSTARRS),h,02/14.7133/2024,58.5333,215.6208,6.8577,1.000256,1.320187,2000,5.5,4.0
# From MPEC 2023-X98
C/2021 S4 (Tsuchinshan),e,17.4788,5.4896,72.8842,164.1877,0.0004685,0.95925832,359.9871,12/06.0/2023,2000,g  6.5,4.0
# From MPEC 2022-OB6
C/2021 T1 (Lemmon),e,40.3604,56.8448,51.5302,1674,0.0000144,0.99817289,0.0000,10/14.2876/2021,2000,g 12.5,4.0
# From MPEC 2023-A50
C/2021 T2 (Fuls),h,06/07.9837/2022,117.5403,223.2348,263.5948,1.000466,1.247268,2000,12.0,4.0
# From MPEC 2023-W26
C/2021 T4 (Lemmon),e,160.7775,257.8852,329.8219,23834,0.0000003,0.99993777,0.0000,07/31.5400/2023,2000,g  7.5,4.0
# From MPEC 2022-ED3
P/2021 U1 (Wierzchos),e,30.5520,246.7971,145.1343,8.530362,0.0395597,0.71304970,31.4828,12/06.0/2023,2000,g 14.5,4.0
# From MPEC 2022-L66
P/2021 U3 (Attard-Maury),e,69.9577,75.1012,335.2555,4.194269,0.1147413,0.54989645,88.5883,12/06.0/2023,2000,g 15.5,4.0
# From MPEC 2021-W31
C/2021 U4 (Leonard),e,152.8876,241.8084,237.3241,45.07341,0.0032570,0.96031290,2.3255,12/06.0/2023,2000,g 17.0,4.0
# From MPEC 2022-WQ9
C/2021 U5 (Catalina),e,39.0472,182.7445,321.4276,216.8604,0.0003086,0.98911165,0.0000,01/26.6161/2022,2000,g 13.0,4.0
# From MPEC 2022-CN4
C/2021 V1 (Rankin),e,71.4534,207.6676,195.1501,653.5938,0.0000590,0.99538687,0.0000,04/30.5333/2022,2000,g 13.0,4.0
# From MPEC 2023-KD6
P/2021 V2 (Fuls),e,12.6947,232.2764,259.8420,9.070323,0.0360803,0.61450400,11.4924,12/06.0/2023,2000,g 10.0,4.0
# From MPEC 2023-X98
C/2021 X1 (Maury-Attard),h,05/27.1492/2023,140.0985,10.5922,334.5626,1.000475,3.233295,2000,7.0,4.0
# From MPEC 2023-A50
A/2021 X2,h,07/08.0674/2022,137.1613,228.8219,193.2993,1.000803,2.995108,2000,16.0,2.0
# From MPEC 2023-N01
C/2021 Y1 (ATLAS),h,04/30.7312/2023,77.1922,244.7680,245.8271,1.001017,2.032475,2000,7.0,4.0
# From MPEC 2022-YN2
C/2022 A1 (Sarneczky),e,116.5246,285.5144,201.2324,349.2069,0.0001510,0.99640993,0.0000,01/31.0748/2022,2000,g 18.0,4.0
# From MPEC 2023-X98
C/2022 A2 (PANSTARRS),h,02/18.2629/2023,108.1335,171.5835,88.3712,1.000381,1.735398,2000,9.5,4.0
# From MPEC 2023-X98
C/2022 A3 (Lemmon-ATLAS),e,88.3415,325.4774,234.8490,871.0157,0.0000383,0.99574806,0.0000,09/28.8602/2023,2000,g  8.0,4.0
# From MPEC 2022-K19
P/2022 B1 (Wierzchos),e,10.9898,325.4463,148.8577,5.466669,0.0771116,0.65327477,50.0103,12/06.0/2023,2000,g 16.5,4.0
# From MPEC 2022-YB4
A/2022 B3,e,132.0525,286.1852,150.6942,762.7903,0.0000468,0.99514985,0.0000,01/17.3786/2022,2000,g 16.5,2.0
# From MPEC 2022-GA9
C/2022 B4 (Bok),e,20.0453,340.6218,152.9408,381.4262,0.0001323,0.99638780,0.0000,01/29.9826/2022,2000,g 21.0,4.0
# From MPEC 2023-J29
P/2022 BV9 (Lemmon),e,11.9312,337.3074,16.2952,4.362537,0.1081672,0.23446200,123.0966,12/06.0/2023,2000,g  9.5,4.0
# From MPEC 2023-J29
P/2022 C1 (PANSTARRS),e,4.7622,113.1248,9.3499,7.225473,0.0507463,0.44856447,38.6434,12/06.0/2023,2000,g 12.0,4.0
# From MPEC 2023-VM5
P/2022 C2 (PANSTARRS),e,9.9816,135.2612,89.2435,6.038472,0.0664222,0.44194702,32.3347,12/06.0/2023,2000,g 12.5,4.0
# From MPEC 2023-UR6
P/2022 C3 (PANSTARRS),e,12.8188,139.0438,93.8977,9.627817,0.0329923,0.54571739,17.2631,12/06.0/2023,2000,g 11.5,4.0
# From MPEC 2022-K19
P/2022 D1 (PANSTARRS),e,44.0781,47.9586,88.6647,7.402713,0.0489348,0.54742309,40.6114,12/06.0/2023,2000,g 12.5,4.0
# From MPEC 2022-K19
C/2022 D2 (Kowalski),e,22.6595,312.4298,177.7918,370.1568,0.0001384,0.99580233,0.0000,03/27.6429/2022,2000,g 17.0,4.0
# From MPEC 2023-X98
C/2022 E2 (ATLAS),h,09/14.0603/2024,137.1262,125.3703,41.7042,1.000737,3.666578,2000,5.0,4.0
# From MPEC 2023-X98
C/2022 E3 (ZTF),h,01/12.7587/2023,109.1683,302.5540,145.8121,1.000154,1.112319,2000,7.5,4.0
# From MPEC 2023-R20
C/2022 F1 (ATLAS),e,57.9782,350.6480,278.2888,4850,0.0000029,0.99876797,0.0000,08/05.2333/2022,2000,g  7.0,4.0
# From MPEC 2022-QD9
C/2022 F2 (NEOWISE),e,97.3113,58.7849,200.6209,24.05322,0.0083550,0.93398760,5.2020,12/06.0/2023,2000,g 14.5,4.0
# From MPEC 2023-J95
C/2022 H1 (PANSTARRS),e,49.8375,6.3416,246.1518,730.5835,0.0000499,0.98946492,0.0000,01/17.1711/2024,2000,g  6.0,4.0
# From MPEC 2022-VC5
C/2022 J1 (Maury-Attard),e,105.9483,280.7545,305.6671,47.62731,0.0029986,0.96632042,1.9639,12/06.0/2023,2000,g 14.9,4.0
# From MPEC 2023-M14
C/2022 J2 (Bok),e,149.1344,252.6372,133.0885,92.01280,0.0011167,0.98015625,0.0000,10/27.0573/2022,2000,g  9.0,4.0
# From MPEC 2023-X98
C/2022 JK5 (PANSTARRS),e,16.8313,59.6485,247.1879,43.37793,0.0034499,0.93804978,0.7628,12/06.0/2023,2000,g 11.0,4.0
# From MPEC 2022-ST7
C/2022 K1 (Leonard),h,12/17.3928/2021,41.9631,136.3326,142.6490,1.002256,3.989074,2000,11.0,4.0
# From MPEC 2023-CD7
C/2022 L1 (Catalina),e,123.4561,300.0324,59.8446,518.7502,0.0000834,0.99693266,0.0000,09/28.2274/2022,2000,g 15.8,4.0
# From MPEC 2023-X98
